const data = [
"1 40044U 14033AL  22077.09102071  .00000830  00000+0  12804-3 0  9999",
"2 40044  97.6600 270.5567 0060021  94.9630 265.8435 14.74633050416416",
"1 41871U 16062C   22076.41149480  .00016452  00000+0  51707-3 0  9994",
"2 41871  51.6361  78.1867 0004977 354.1778   5.9145 15.33098331295819",
"1 41872U 16062D   22077.22418619  .00011558  00000+0  36702-3 0  9998",
"2 41872  51.6792  83.5291 0003677  74.2775 285.8613 15.33094808295906",
"1 41873U 16062E   22077.25987423  .00004521  00000+0  18554-3 0  9993",
"2 41873  51.6782 116.5696 0008072 320.8382  39.2012 15.26169038295409",
"1 41874U 16062F   22076.31910996  .00013840  00000+0  44827-3 0  9997",
"2 41874  51.6486  87.8663 0008501 253.4313 106.5735 15.32259354295685",
"1 41991U 17008AV  22076.68293853  .00009528  00000+0  34004-3 0  9998",
"2 41991  97.2729 140.0494 0006296 192.3602 167.7485 15.29059743282140",
"1 41992U 17008AW  22076.73391526  .00012828  00000+0  41813-3 0  9994",
"2 41992  97.2800 143.7347 0006315 182.5662 177.5549 15.31927740282354",
"1 41993U 17008AX  22077.17147670  .00007718  00000+0  27513-3 0  9996",
"2 41993  97.2732 141.0767 0006499 188.6124 171.5006 15.29161191282257",
"1 41994U 17008AY  22076.71781245  .00013295  00000+0  43338-3 0  9998",
"2 41994  97.2796 143.5090 0006441 181.2447 178.8780 15.31916143282345",
"1 41995U 17008AZ  22076.74470448  .00008439  00000+0  30108-3 0  9997",
"2 41995  97.2750 140.8593 0007075 206.1720 153.9164 15.29102533282874",
"1 41996U 17008BA  22077.16206273  .00011465  00000+0  37742-3 0  9992",
"2 41996  97.2831 144.1932 0006812 197.5219 162.5789 15.31632056282299",
"1 41997U 17008BB  22076.70197007  .00012961  00000+0  42100-3 0  9992",
"2 41997  97.2814 144.1516 0006892 196.6396 163.4620 15.32033800282357",
"1 41998U 17008BC  22076.73264265  .00008683  00000+0  31090-3 0  9999",
"2 41998  97.2742 140.4929 0006912 207.1842 152.9038 15.28975924282096",
"1 42752U 17019B   22077.17446503  .00013835  00000+0  37553-3 0  9991",
"2 42752  51.6377 326.6085 0008577  98.3172 261.8784 15.37844678267114",
"1 42753U 17019C   22077.20876461  .00021950  00000+0  49190-3 0  9993",
"2 42753  51.6344 306.9295 0007120 118.5980 241.5723 15.43329457267330",
"1 42754U 17019D   22077.08802110  .00012915  00000+0  35099-3 0  9994",
"2 42754  51.6382 328.2363 0008490  99.7933 260.4010 15.37873946267064",
"1 42755U 17019E   22077.07989959  .00032877  00000+0  73746-3 0  9991",
"2 42755  51.6400 307.8605 0007612 120.1683  35.1063 15.43068291267223",
"1 42771U 17036G   22077.11858732  .00008899  00000+0  33320-3 0  9998",
"2 42771  97.2154 121.6347 0010844 282.2462  77.7563 15.27460728263039",
"1 42772U 17036H   22077.13027339  .00009925  00000+0  36477-3 0  9999",
"2 42772  97.2113 121.6923 0010355 279.8630  80.1441 15.28047915263067",
"1 42773U 17036J   22077.06727071  .00005486  00000+0  21580-3 0  9999",
"2 42773  97.2218 122.1322 0010825 282.6087  77.3941 15.25994949263027",
"1 42774U 17036K   22076.87542234  .00009974  00000+0  37048-3 0  9996",
"2 42774  97.2153 121.7996 0010236 280.9944  79.0144 15.27696705263011",
"1 42779U 17036Q   22076.64667561  .00010366  00000+0  36268-3 0  9997",
"2 42779  97.2209 125.5304 0008227 279.9308  80.1004 15.29668960263193",
"1 42780U 17036R   22076.70706819  .00006877  00000+0  26350-3 0  9999",
"2 42780  97.2206 122.8545 0008971 290.5535  69.4741 15.26798366263049",
"1 42781U 17036S   22076.88418115  .00005352  00000+0  20648-3 0  9999",
"2 42781  97.2225 123.9412 0009164 287.8423  72.1816 15.26671049263105",
"1 42782U 17036T   22076.71196821  .00009848  00000+0  35402-3 0  9997",
"2 42782  97.2163 124.2553 0008202 284.8970  75.1361 15.28796675263139",
"1 42837U 17042N   22077.20296902  .00001309  00000+0  13054-3 0  9994",
"2 42837  97.4409 299.7670 0011722 308.4366  51.5802 14.93098551254650",
"1 42838U 17042P   22077.13294505  .00001407  00000+0  13999-3 0  9991",
"2 42838  97.4400 299.6598 0011818 308.4479  51.5680 14.93098024254649",
"1 42839U 17042Q   22077.13924468  .00001499  00000+0  14957-3 0  9996",
"2 42839  97.4409 299.4480 0011498 308.6364  51.3827 14.92897951254620",
"1 42840U 17042R   22077.16486260  .00001340  00000+0  13464-3 0  9991",
"2 42840  97.4443 299.8349 0011797 309.1380  50.8791 14.92767760254633",
"1 42841U 17042S   22077.18417762  .00001417  00000+0  14032-3 0  9992",
"2 42841  97.4465 300.7893 0011180 305.1490  54.8682 14.93271557254692",
"1 42842U 17042T   22076.84289048  .00001779  00000+0  17467-3 0  9995",
"2 42842  97.4450 300.3308 0011215 307.1821  52.8375 14.93328868254643",
"1 42845U 17042W   22077.14536605  .00002142  00000+0  20675-3 0  9996",
"2 42845  97.4340 299.8571 0011529 306.7012  53.3149 14.93801170254729",
"1 42881U 17042BJ  22077.08540854  .00069938  00000+0  81000-3 0  9995",
"2 42881  96.8127 280.5131 0006396 136.2764 223.9003 15.61585492262736",
"1 43046U 17071K   22077.24804580  .01670920  21207-2  16955-2 0  9999",
"2 43046  51.6096  96.0844 0005187  55.3932 304.7571 16.10718857242082",
"1 43053U 17071S   22076.20805877  .25421876  12696-4  42437-3 0  9991",
"2 43053  51.5276 100.7529 0010652 303.3456  58.2728 16.47225911241877",
"1 43123U 18004N   22076.74077250  .00014012  00000+0  46172-3 0  9995",
"2 43123  97.3838 156.2670 0006841 318.0893  41.9824 15.31557142232527",
"1 43124U 18004P   22076.79168413  .00011915  00000+0  39901-3 0  9994",
"2 43124  97.3841 156.0758 0006823 317.8884  42.1832 15.31073639232519",
"1 43125U 18004Q   22076.78615667  .00014107  00000+0  45292-3 0  9998",
"2 43125  97.3885 157.3764 0006643 312.2929  47.7749 15.32393394232587",
"1 43126U 18004R   22076.73752046  .00016844  00000+0  53445-3 0  9996",
"2 43126  97.3874 157.0839 0006299 315.3401  44.7333 15.32732345232569",
"1 43165U 18010C   22076.71465852  .00011075  00000+0  42636-3 0  9991",
"2 43165  82.9171 153.8713 0025507 298.4808  61.3862 15.25924287230483",
"1 43167U 18010E   22076.70107433  .00010358  00000+0  43964-3 0  9998",
"2 43167  82.9215 159.4112 0020644 323.0781  36.9034 15.22758577230147",
"1 43182U 18014C   22077.18797488  .00002715  00000+0  23362-3 0  9995",
"2 43182  97.6532 342.7426 0012531 246.5953 113.3953 14.98157581225223",
"1 43183U 18014D   22077.19646343  .00002689  00000+0  23124-3 0  9996",
"2 43183  97.6542 342.9442 0012521 245.5105 114.4812 14.98186359225234",
"1 43184U 18014E   22077.14943557  .00003368  00000+0  28965-3 0  9992",
"2 43184  97.6549 342.8457 0011478 244.6999 115.3034 14.98020421225220",
"1 43185U 18014F   22077.19275284  .00002427  00000+0  20978-3 0  9994",
"2 43185  97.6553 343.0541 0012275 247.7500 112.2421 14.98087340225231",
"1 43558U 18046E   22076.80065068  .00019233  00000+0  48299-3 0  9996",
"2 43558  51.6378 255.6718 0004861  87.9338 272.2203 15.39994660205397",
"1 43559U 18046F   22076.99324514  .00019091  00000+0  47276-3 0  9997",
"2 43559  51.6372 253.2356 0004730  88.7419 271.4107 15.40426874205223",
"1 43560U 18046G   22077.03449349  .00023243  00000+0  58097-3 0  9996",
"2 43560  51.6380 254.9830 0005122 102.9267 257.2290 15.40011643205426",
"1 43561U 18046H   22076.87807580  .00016331  00000+0  42254-3 0  9991",
"2 43561  51.6383 257.6533 0005616  92.5049 267.6578 15.39199251204939",
"1 43695U 18088F   22076.84563747  .00011150  00000+0  43277-3 0  9996",
"2 43695  85.0338  14.6698 0017805 109.9022 250.4142 15.25806999185921",
"1 43697U 18088H   22076.86307519  .00011630  00000+0  44037-3 0  9991",
"2 43697  85.0403  14.6819 0016970  92.3295 267.9892 15.26644167186036",
"1 43731U 18096N   22077.18478351  .00018048  00000+0  49665-3 0  9990",
"2 43731  97.3688 161.5143 0015590  17.3427 342.8347 15.37106931184208",
"1 43732U 18096P   22076.74975930  .00019421  00000+0  53174-3 0  9993",
"2 43732  97.3701 161.4401 0015663  17.1619 343.0152 15.37246969184150",
"1 43745U 18096AC  22076.76057250  .00017697  00000+0  49036-3 0  9990",
"2 43745  97.3693 161.3302 0016242  18.1728 342.0093 15.36886003184161",
"1 43746U 18096AD  22076.73283176  .00021064  00000+0  56455-3 0  9992",
"2 43746  97.3690 161.6474 0015313  16.6664 343.5081 15.37897606184202",
"1 43882U 18111G   22077.19334152  .00002769  00000+0  23664-3 0  9990",
"2 43882  97.6781 346.2284 0010330 264.7176  95.2868 14.98421697174094",
"1 43883U 18111H   22077.20005201  .00002585  00000+0  22083-3 0  9993",
"2 43883  97.6779 346.3951 0010414 264.5248  95.4786 14.98508358174108",
"1 43884U 18111J   22077.18490521  .00002581  00000+0  21894-3 0  9999",
"2 43884  97.6829 346.7586 0009521 268.6936  91.3196 14.98777013174127",
"1 43885U 18111K   22077.18687944  .00002130  00000+0  18292-3 0  9995",
"2 43885  97.6808 346.5357 0009609 264.5551  95.4575 14.98489911174105",
"1 43886U 18111L   22077.18479224  .00002057  00000+0  17639-3 0  9998",
"2 43886  97.6824 346.7778 0009358 263.4798  96.5359 14.98583514174112",
"1 43887U 18111M   22077.22473958  .00003534  00000+0  29853-3 0  9994",
"2 43887  97.6818 347.0673 0008974 254.6767 105.3464 14.98708382176137",
"1 43888U 18111N   22077.25536393  .00002149  00000+0  18328-3 0  9997",
"2 43888  97.6838 347.3120 0009672 260.6318  99.3812 14.98746213176140",
"1 43889U 18111P   22077.25881647  .00002180  00000+0  18559-3 0  9994",
"2 43889  97.6839 347.4810 0009963 259.9977 100.0122 14.98801796176146",
"1 44084U 19018G   22077.16191853  .00014858  00000+0  50349-3 0  9990",
"2 44084  97.3273 139.7765 0012381  79.1898 281.0736 15.30584657164785",
"1 44085U 19018H   22077.15657943  .00010364  00000+0  36597-3 0  9994",
"2 44085  97.3259 139.1333 0012876  81.5277 278.7423 15.29326095164742",
"1 44086U 19018J   22076.73512962  .00012852  00000+0  44012-3 0  9994",
"2 44086  97.3292 139.7176 0012301  80.8854 279.3778 15.30277914164744",
"1 44087U 19018K   22077.12008432  .00015868  00000+0  53152-3 0  9996",
"2 44087  97.3294 140.2866 0012334  80.3871 279.8763 15.30945827164812",
"1 44396U 19038L   22077.21100726  .00007942  00000+0  40555-3 0  9997",
"2 44396  97.6133  46.0502 0024805  82.5034 277.9016 15.16708462149236",
